{
  "type": "FeatureCollection",
  "features": [
    {
      "type": "Feature",
      "properties": {
        "norad_id": 28054,
        "name": "DMSP 5D-3 F16 (USA 172)",
        "group": "weather",
        "lat": -37.42315773763831,
        "lon": 24.009695036299917,
        "alt_km": 847.2236776040472,
        "timestamp": "2025-12-25T11:37:44.064529+00:00",
        "meta_object_name": "DMSP 5D-3 F16 (USA 172)",
        "meta_object_id": "2003-048A",
        "meta_epoch": "2025-12-25T01:56:29.816160",
        "meta_mean_motion": 14.14428485,
        "meta_eccentricity": 0.0006247,
        "meta_inclination": 99.0038,
        "meta_ra_of_asc_node": 16.6344,
        "meta_arg_of_pericenter": 281.2459,
        "meta_mean_anomaly": 146.6763,
        "meta_ephemeris_type": 0,
        "meta_classification_type": "U",
        "meta_norad_cat_id": 28054,
        "meta_element_set_no": 999,
        "meta_rev_at_epoch": 14487,
        "meta_bstar": 8.012e-05,
        "meta_mean_motion_dot": 1.08e-06,
        "meta_mean_motion_ddot": 0,
        "tle_line1": "1 28054U 03048A   25359.08090065  .00000108  00000+0  80120-4 0  9999",
        "tle_line2": "2 28054  99.0038  16.6344 0006247 281.2459 146.6763 14.14428485144872"
      },
      "geometry": {
        "type": "Point",
        "coordinates": [
          24.009695036299917,
          -37.42315773763831
        ]
      }
    },
    {
      "type": "Feature",
      "properties": {
        "norad_id": 28912,
        "name": "METEOSAT-9 (MSG-2)",
        "group": "weather",
        "lat": -8.75282591004775,
        "lon": -47.00873808347089,
        "alt_km": 35512.91792381599,
        "timestamp": "2025-12-25T11:37:44.064579+00:00",
        "meta_object_name": "METEOSAT-9 (MSG-2)",
        "meta_object_id": "2005-049B",
        "meta_epoch": "2025-12-24T18:27:10.310976",
        "meta_mean_motion": 1.00268275,
        "meta_eccentricity": 0.00719695,
        "meta_inclination": 8.9553,
        "meta_ra_of_asc_node": 55.846,
        "meta_arg_of_pericenter": 282.2974,
        "meta_mean_anomaly": 77.0088,
        "meta_ephemeris_type": 0,
        "meta_classification_type": "U",
        "meta_norad_cat_id": 28912,
        "meta_element_set_no": 999,
        "meta_rev_at_epoch": 524,
        "meta_bstar": 0,
        "meta_mean_motion_dot": 1.45e-06,
        "meta_mean_motion_ddot": 0,
        "tle_line1": "1 28912U 05049B   25358.76886934  .00000145  00000+0  00000+0 0  9992",
        "tle_line2": "2 28912   8.9553  55.8460 0071969 282.2974  77.0088  1.00268275  5240"
      },
      "geometry": {
        "type": "Point",
        "coordinates": [
          -47.00873808347089,
          -8.75282591004775
        ]
      }
    },
    {
      "type": "Feature",
      "properties": {
        "norad_id": 29522,
        "name": "DMSP 5D-3 F17 (USA 191)",
        "group": "weather",
        "lat": -72.71544724879938,
        "lon": 34.23348880014417,
        "alt_km": 850.8423237549769,
        "timestamp": "2025-12-25T11:37:44.064597+00:00",
        "meta_object_name": "DMSP 5D-3 F17 (USA 191)",
        "meta_object_id": "2006-050A",
        "meta_epoch": "2025-12-25T01:48:02.014848",
        "meta_mean_motion": 14.14924681,
        "meta_eccentricity": 0.0009935,
        "meta_inclination": 98.7392,
        "meta_ra_of_asc_node": 4.2072,
        "meta_arg_of_pericenter": 188.1231,
        "meta_mean_anomaly": 171.9783,
        "meta_ephemeris_type": 0,
        "meta_classification_type": "U",
        "meta_norad_cat_id": 29522,
        "meta_element_set_no": 999,
        "meta_rev_at_epoch": 98779,
        "meta_bstar": 0.00010013,
        "meta_mean_motion_dot": 1.5e-06,
        "meta_mean_motion_ddot": 0,
        "tle_line1": "1 29522U 06050A   25359.07502332  .00000150  00000+0  10013-3 0  9990",
        "tle_line2": "2 29522  98.7392   4.2072 0009935 188.1231 171.9783 14.14924681987791"
      },
      "geometry": {
        "type": "Point",
        "coordinates": [
          34.23348880014417,
          -72.71544724879938
        ]
      }
    },
    {
      "type": "Feature",
      "properties": {
        "norad_id": 32958,
        "name": "FENGYUN 3A",
        "group": "weather",
        "lat": -29.006667852755783,
        "lon": 113.88995999339653,
        "alt_km": 830.0689927221702,
        "timestamp": "2025-12-25T11:37:44.064611+00:00",
        "meta_object_name": "FENGYUN 3A",
        "meta_object_id": "2008-026A",
        "meta_epoch": "2025-12-24T19:25:13.141632",
        "meta_mean_motion": 14.19518258,
        "meta_eccentricity": 0.00076114,
        "meta_inclination": 98.6714,
        "meta_ra_of_asc_node": 298.0827,
        "meta_arg_of_pericenter": 271.2931,
        "meta_mean_anomaly": 88.7373,
        "meta_ephemeris_type": 0,
        "meta_classification_type": "U",
        "meta_norad_cat_id": 32958,
        "meta_element_set_no": 999,
        "meta_rev_at_epoch": 91066,
        "meta_bstar": 7.9047687e-05,
        "meta_mean_motion_dot": 1.23e-06,
        "meta_mean_motion_ddot": 0,
        "tle_line1": "1 32958U 08026A   25358.80917988  .00000123  00000+0  79048-4 0  9993",
        "tle_line2": "2 32958  98.6714 298.0827 0007611 271.2931  88.7373 14.19518258910662"
      },
      "geometry": {
        "type": "Point",
        "coordinates": [
          113.88995999339653,
          -29.006667852755783
        ]
      }
    },
    {
      "type": "Feature",
      "properties": {
        "norad_id": 35491,
        "name": "GOES 14",
        "group": "weather",
        "lat": 1.13868819943579,
        "lon": 150.87538441867906,
        "alt_km": 35836.62373563218,
        "timestamp": "2025-12-25T11:37:44.064625+00:00",
        "meta_object_name": "GOES 14",
        "meta_object_id": "2009-033A",
        "meta_epoch": "2025-12-24T22:48:45.258912",
        "meta_mean_motion": 1.00097024,
        "meta_eccentricity": 6.65e-05,
        "meta_inclination": 1.2336,
        "meta_ra_of_asc_node": 85.2804,
        "meta_arg_of_pericenter": 191.3569,
        "meta_mean_anomaly": 41.8193,
        "meta_ephemeris_type": 0,
        "meta_classification_type": "U",
        "meta_norad_cat_id": 35491,
        "meta_element_set_no": 999,
        "meta_rev_at_epoch": 484,
        "meta_bstar": 0,
        "meta_mean_motion_dot": 3.6e-07,
        "meta_mean_motion_ddot": 0,
        "tle_line1": "1 35491U 09033A   25358.95052383  .00000036  00000+0  00000+0 0  9992",
        "tle_line2": "2 35491   1.2336  85.2804 0000665 191.3569  41.8193  1.00097024  4842"
      },
      "geometry": {
        "type": "Point",
        "coordinates": [
          150.87538441867906,
          1.13868819943579
        ]
      }
    },
    {
      "type": "Feature",
      "properties": {
        "norad_id": 35951,
        "name": "DMSP 5D-3 F18 (USA 210)",
        "group": "weather",
        "lat": 33.704790540716616,
        "lon": 161.8116970524154,
        "alt_km": 844.6782883856176,
        "timestamp": "2025-12-25T11:37:44.064637+00:00",
        "meta_object_name": "DMSP 5D-3 F18 (USA 210)",
        "meta_object_id": "2009-057A",
        "meta_epoch": "2025-12-25T02:27:23.698368",
        "meta_mean_motion": 14.14777259,
        "meta_eccentricity": 0.00117,
        "meta_inclination": 98.885,
        "meta_ra_of_asc_node": 335.4421,
        "meta_arg_of_pericenter": 30.0696,
        "meta_mean_anomaly": 330.1146,
        "meta_ephemeris_type": 0,
        "meta_classification_type": "U",
        "meta_norad_cat_id": 35951,
        "meta_element_set_no": 999,
        "meta_rev_at_epoch": 83497,
        "meta_bstar": 0.00016468,
        "meta_mean_motion_dot": 2.73e-06,
        "meta_mean_motion_ddot": 0,
        "tle_line1": "1 35951U 09057A   25359.10235762  .00000273  00000+0  16468-3 0  9993",
        "tle_line2": "2 35951  98.8850 335.4421 0011700  30.0696 330.1146 14.14777259834974"
      },
      "geometry": {
        "type": "Point",
        "coordinates": [
          161.8116970524154,
          33.704790540716616
        ]
      }
    },
    {
      "type": "Feature",
      "properties": {
        "norad_id": 36411,
        "name": "EWS-G2 (GOES 15)",
        "group": "weather",
        "lat": -0.7717895875946571,
        "lon": -29.92107807795522,
        "alt_km": 35776.30033243492,
        "timestamp": "2025-12-25T11:37:44.064650+00:00",
        "meta_object_name": "EWS-G2 (GOES 15)",
        "meta_object_id": "2010-008A",
        "meta_epoch": "2025-12-24T23:39:47.870208",
        "meta_mean_motion": 1.00271022,
        "meta_eccentricity": 0.0005583,
        "meta_inclination": 0.8419,
        "meta_ra_of_asc_node": 86.0741,
        "meta_arg_of_pericenter": 179.0793,
        "meta_mean_anomaly": 244.9011,
        "meta_ephemeris_type": 0,
        "meta_classification_type": "U",
        "meta_norad_cat_id": 36411,
        "meta_element_set_no": 999,
        "meta_rev_at_epoch": 5789,
        "meta_bstar": 0,
        "meta_mean_motion_dot": 5.9e-07,
        "meta_mean_motion_ddot": 0,
        "tle_line1": "1 36411U 10008A   25358.98597072  .00000059  00000+0  00000+0 0  9996",
        "tle_line2": "2 36411   0.8419  86.0741 0005583 179.0793 244.9011  1.00271022 57897"
      },
      "geometry": {
        "type": "Point",
        "coordinates": [
          -29.92107807795522,
          -0.7717895875946571
        ]
      }
    }
  ]
}